[{"OBJECT_NAME":"ORBCOMM FM117","OBJECT_ID":"2015-081K","EPOCH":"2026-03-08T23:37:11.280576","MEAN_MOTION":14.58734322,"ECCENTRICITY":0.00025428,"INCLINATION":47.0015,"RA_OF_ASC_NODE":294.572,"ARG_OF_PERICENTER":102.3164,"MEAN_ANOMALY":257.8006,"EPHEMERIS_TYPE":0,"CLASSIFICATION_TYPE":"U","NORAD_CAT_ID":41188,"ELEMENT_SET_NO":999,"REV_AT_EPOCH":54549,"BSTAR":0.00024145216,"MEAN_MOTION_DOT":9.67e-6,"MEAN_MOTION_DDOT":0},{"OBJECT_NAME":"RESURS O1 DEB","OBJECT_ID":"1994-074E","EPOCH":"2026-03-09T19:33:25.733088","MEAN_MOTION":14.38080605,"ECCENTRICITY":0.01696889,"INCLINATION":98.4648,"RA_OF_ASC_NODE":168.5688,"ARG_OF_PERICENTER":19.2919,"MEAN_ANOMALY":341.459,"EPHEMERIS_TYPE":0,"CLASSIFICATION_TYPE":"U","NORAD_CAT_ID":23346,"ELEMENT_SET_NO":999,"REV_AT_EPOCH":63688,"BSTAR":0.00022284032,"MEAN_MOTION_DOT":7.48e-6,"MEAN_MOTION_DDOT":0}]
